NORAD_CAT_ID,OBJECT_NAME,OBJECT_TYPE,EPOCH,MEAN_MOTION,ECCENTRICITY,INCLINATION,RA_OF_ASC_NODE,ARG_OF_PERICENTER,MEAN_ANOMALY,BSTAR,MEAN_MOTION_DOT,MEAN_MOTION_DDOT,TLE_LINE0,TLE_LINE1,TLE_LINE2,SEMIMAJOR_AXIS,PERIOD,APOGEE,PERIGEE,DECAYED
52489.0,STARLINK-3923,PAYLOAD,2022-12-17 14:34:40,15.08826888,0.0002983,53.2173,307.7497,30.4394,329.677,4.1143e-05,3.66e-06,0.0,0 STARLINK-3923,1 52489U 22049AQ  22351.60740907  .00000366  00000-0  41143-4 0  9993,2 52489  53.2173 307.7497 0002983  30.4394 329.6770 15.08826888 34402,6917.92,95.438,541.849,537.722,0.0
52489.0,STARLINK-3923,PAYLOAD,2022-12-18 03:17:44,15.08841929,0.0002912,53.2165,305.3708,30.2414,329.8746,2.5709e-05,1.21e-06,0.0,0 STARLINK-3923,1 52489U 22049AQ  22352.13732134  .00000121  00000-0  25709-4 0  9994,2 52489  53.2165 305.3708 0002912  30.2414 329.8746 15.08841929 34649,6917.874,95.437,541.754,537.725,0.0
52489.0,STARLINK-3923,PAYLOAD,2022-12-18 06:28:30,15.08842726,0.0002943,53.2165,304.7761,29.4082,330.7075,2.7464e-05,1.49e-06,0.0,0 STARLINK-3923,1 52489U 22049AQ  22352.26980114  .00000149  00000-0  27464-4 0  9991,2 52489  53.2165 304.7761 0002943  29.4082 330.7075 15.08842726 34503,6917.871999999999,95.437,541.773,537.701,0.0
52489.0,STARLINK-3923,PAYLOAD,2022-12-18 20:47:00,15.08826464,0.0002884,53.2178,302.1006,29.2226,330.8927,6.0106e-05,6.68e-06,0.0,0 STARLINK-3923,1 52489U 22049AQ  22352.86597459  .00000668  00000-0  60106-4 0  9999,2 52489  53.2178 302.1006 0002884  29.2226 330.8927 15.08826464 34590,6917.922,95.438,541.7819999999998,537.7919999999998,0.0
52489.0,STARLINK-3923,PAYLOAD,2022-12-19 06:19:18,15.08834319,0.0002693,53.2159,300.3153,33.5193,326.5969,0.00011005,1.463e-05,0.0,0 STARLINK-3923,1 52489U 22049AQ  22353.26341120  .00001463  00000-0  11005-3 0  9993,2 52489  53.2159 300.3153 0002693  33.5193 326.5969 15.08834319 34812,6917.898,95.438,541.626,537.9,0.0
52489.0,STARLINK-3923,PAYLOAD,2022-12-19 14:16:14,15.08836959,0.0002785,53.2156,298.8294,33.6074,326.5095,0.00011261,1.504e-05,0.0,0 STARLINK-3923,1 52489U 22049AQ  22353.59461074  .00001504  00000-0  11261-3 0  9990,2 52489  53.2156 298.8294 0002785  33.6074 326.5095 15.08836959 34707,6917.89,95.438,541.681,537.828,0.0
52489.0,STARLINK-3923,PAYLOAD,2022-12-20 07:45:27,15.08860459,0.0002735,53.2161,295.5578,37.0158,323.1022,0.00023714,3.4899999999999995e-05,0.0,0 STARLINK-3923,1 52489U 22049AQ  22354.32323340  .00003490  00000-0  23714-3 0  9997,2 52489  53.2161 295.5578 0002735  37.0158 323.1022 15.08860459 34815,6917.818,95.436,541.575,537.7909999999998,0.0
52489.0,STARLINK-3923,PAYLOAD,2022-12-21 02:50:07,15.0883365,0.0002096,53.2148,291.9894,55.6754,304.4437,6.4669000000000016e-06,-1.85e-06,0.0,0 STARLINK-3923,1 52489U 22049AQ  22355.11813760 -.00000185  00000-0  64669-5 0  9990,2 52489  53.2148 291.9894 0002096  55.6754 304.4437 15.08833650 35095,6917.9,95.438,541.215,538.315,0.0
52489.0,STARLINK-3923,PAYLOAD,2022-12-21 12:22:26,15.08834056,0.0002563,53.2152,290.2058,42.1275,317.9914,7.4184e-06,-1.7e-06,0.0,0 STARLINK-3923,1 52489U 22049AQ  22355.51558076 -.00000170  00000-0  74184-5 0  9997,2 52489  53.2152 290.2058 0002563  42.1275 317.9914 15.08834056 34990,6917.899,95.438,541.5369999999998,537.991,0.0
52489.0,STARLINK-3923,PAYLOAD,2022-12-22 05:51:40,15.08850461,0.0002455,53.2153,286.9341,45.9799,314.1395,0.00071429,0.00011101,0.0,0 STARLINK-3923,1 52489U 22049AQ  22356.24421860  .00011101  00000-0  71429-3 0  9990,2 52489  53.2153 286.9341 0002455  45.9799 314.1395 15.08850461 35261,6917.848000000001,95.437,541.4119999999998,538.015,0.0
52489.0,STARLINK-3923,PAYLOAD,2022-12-22 12:13:13,15.08842427,0.0002513,53.2147,285.7428,41.6846,318.4337,0.00030736,4.607e-05,0.0,0 STARLINK-3923,1 52489U 22049AQ  22356.50918045  .00004607  00000-0  30736-3 0  9994,2 52489  53.2147 285.7428 0002513  41.6846 318.4337 15.08842427 35309,6917.873000000001,95.437,541.476,538.0,0.0
52489.0,STARLINK-3923,PAYLOAD,2022-12-22 20:10:09,15.08838359,0.0002344,53.2149,284.2574,54.1716,305.9494,0.00014559,2.029e-05,0.0,0 STARLINK-3923,1 52489U 22049AQ  22356.84038280  .00002029  00000-0  14559-3 0  9996,2 52489  53.2149 284.2574 0002344  54.1716 305.9494 15.08838359 35195,6917.885,95.438,541.372,538.129,0.0
52489.0,STARLINK-3923,PAYLOAD,2022-12-23 12:04:00,15.088537,0.0002309,53.2146,281.2848,52.4085,307.7117,0.00050419,7.748e-05,0.0,0 STARLINK-3923,1 52489U 22049AQ  22357.50277835  .00007748  00000-0  50419-3 0  9999,2 52489  53.2146 281.2848 0002309  52.4085 307.7117 15.08853700 35294,6917.839,95.437,541.3009999999998,538.106,0.0
52489.0,STARLINK-3923,PAYLOAD,2022-12-23 23:11:41,15.08871748,0.0002179,53.2143,279.2029,54.607,305.5126,0.0010164,0.00015939,0.0,0 STARLINK-3923,1 52489U 22049AQ  22357.96645090  .00015939  00000-0  10164-2 0  9994,2 52489  53.2143 279.2029 0002179  54.6070 305.5126 15.08871748 35526,6917.783,95.436,541.156,538.141,0.0
52489.0,STARLINK-3923,PAYLOAD,2022-12-24 11:54:46,15.08853168,0.0002544,53.214,276.8243,56.4036,303.7199,9.8211e-05,1.276e-05,0.0,0 STARLINK-3923,1 52489U 22049AQ  22358.49637049  .00001276  00000-0  98211-4 0  9998,2 52489  53.2140 276.8243 0002544  56.4036 303.7199 15.08853168 35607,6917.84,95.437,541.465,537.945,0.0
52489.0,STARLINK-3923,PAYLOAD,2022-12-25 03:48:37,15.08846295,0.0001816,53.2135,273.8502,51.7179,308.3976,0.0004494,6.873e-05,0.0,0 STARLINK-3923,1 52489U 22049AQ  22359.15876905  .00006873  00000-0  44940-3 0  9995,2 52489  53.2135 273.8502 0001816  51.7179 308.3976 15.08846295 35701,6917.861,95.437,540.982,538.47,0.0
52489.0,STARLINK-3923,PAYLOAD,2022-12-25 11:45:34,15.08829043,0.0002708,53.2134,272.3634,58.853,301.2728,0.00020625,2.995e-05,0.0,0 STARLINK-3923,1 52489U 22049AQ  22359.48997769  .00002995  00000-0  20625-3 0  9998,2 52489  53.2134 272.3634 0002708  58.8530 301.2728 15.08829043 35754,6917.9140000000025,95.438,541.6519999999998,537.906,0.0
52489.0,STARLINK-3923,PAYLOAD,2022-12-26 11:36:21,15.08843342,0.0002017,53.2129,267.9008,53.8114,306.3064,0.00065424,0.0001014,0.0,0 STARLINK-3923,1 52489U 22049AQ  22360.48357860  .00010140  00000-0  65424-3 0  9999,2 52489  53.2129 267.9008 0002017  53.8114 306.3064 15.08843342 35745,6917.87,95.437,541.131,538.34,0.0
52489.0,STARLINK-3923,PAYLOAD,2022-12-27 03:30:12,15.08852329,0.0002069,53.2134,264.9268,55.0931,305.0256,0.00055588,8.573e-05,0.0,0 STARLINK-3923,1 52489U 22049AQ  22361.14597543  .00008573  00000-0  55588-3 0  9994,2 52489  53.2134 264.9268 0002069  55.0931 305.0256 15.08852329 36008,6917.843000000003,95.437,541.139,538.276,0.0
52489.0,STARLINK-3923,PAYLOAD,2022-12-28 03:20:57,15.08871669,0.0002083,53.2139,260.4653,59.3413,300.7784,0.00057241,8.841e-05,0.0,0 STARLINK-3923,1 52489U 22049AQ  22362.13955910  .00008841  00000-0  57241-3 0  9996,2 52489  53.2139 260.4653 0002083  59.3413 300.7784 15.08871669 35993,6917.784000000002,95.436,541.09,538.2080000000002,0.0
52489.0,STARLINK-3923,PAYLOAD,2022-12-29 03:11:45,15.08830664,0.0001691,53.2134,256.0077,29.9905,330.1184,-0.00023867,-4.084e-05,0.0,0 STARLINK-3923,1 52489U 22049AQ  22363.13316966 -.00004084  00000-0 -23867-3 0  9993,2 52489  53.2134 256.0077 0001691  29.9905 330.1184 15.08830664 36309,6917.909000000002,95.438,540.944,538.604,0.0
52489.0,STARLINK-3923,PAYLOAD,2022-12-29 09:33:18,15.08820862,0.000173,53.2134,254.8151,20.1773,339.9287,-0.00027414,-4.646e-05,0.0,0 STARLINK-3923,1 52489U 22049AQ  22363.39813581 -.00004646  00000-0 -27414-3 0  9992,2 52489  53.2134 254.8151 0001730  20.1773 339.9287 15.08820862 36342,6917.939,95.439,541.001,538.607,0.0
52489.0,STARLINK-3923,PAYLOAD,2022-12-30 03:02:34,15.08838277,0.000204,53.2135,251.5453,37.2812,322.8322,0.0012766,0.00020087,0.0,0 STARLINK-3923,1 52489U 22049AQ  22364.12678626  .00020087  00000-0  12766-2 0  9991,2 52489  53.2135 251.5453 0002040  37.2812 322.8322 15.08838277 36452,6917.886,95.438,541.1619999999998,538.339,0.0
52489.0,STARLINK-3923,PAYLOAD,2022-12-30 09:24:06,15.08860322,0.0002005,53.2131,250.3558,37.5537,322.5595,0.0016817,0.00026593,0.0,0 STARLINK-3923,1 52489U 22049AQ  22364.39174314  .00026593  00000-0  16817-2 0  9994,2 52489  53.2131 250.3558 0002005  37.5537 322.5595 15.08860322 36331,6917.818,95.436,541.07,538.2959999999998,0.0
52489.0,STARLINK-3923,PAYLOAD,2022-12-31 09:14:52,15.08884181,0.0002177999999999,53.2131,245.8948,39.3034,320.8116,0.0013343,0.00021037,0.0,0 STARLINK-3923,1 52489U 22049AQ  22365.38532463  .00021037  00000-0  13343-2 0  9996,2 52489  53.2131 245.8948 0002178  39.3034 320.8116 15.08884181 36649,6917.745,95.435,541.117,538.104,0.0
52489.0,STARLINK-3923,PAYLOAD,2022-12-31 17:11:47,15.088552800000002,0.0001838,53.2134,244.4087,42.1921,317.9212,-0.00017336,-3.047e-05,0.0,0 STARLINK-3923,1 52489U 22049AQ  22365.71652109 -.00003047  00000-0 -17336-3 0  9993,2 52489  53.2134 244.4087 0001838  42.1921 317.9212 15.08855280 36530,6917.834,95.437,540.97,538.427,0.0
52489.0,STARLINK-3923,PAYLOAD,2023-01-01 02:44:06,15.08841973,0.0002005999999999,53.215,242.6251,42.7319,317.3829,-0.00018984,-3.308e-05,0.0,0 STARLINK-3923,1 52489U 22049AQ  23001.11396515 -.00003308  00000-0 -18984-3 0  9991,2 52489  53.2150 242.6251 0002006  42.7319 317.3829 15.08841973 36752,6917.874,95.437,541.127,538.352,0.0
52489.0,STARLINK-3923,PAYLOAD,2023-01-01 09:05:39,15.08827614,0.0002301,53.2128,241.4354,50.9749,309.1447,-0.00023427,-4.014e-05,0.0,0 STARLINK-3923,1 52489U 22049AQ  23001.37893109 -.00004014  00000-0 -23427-3 0  9993,2 52489  53.2128 241.4354 0002301  50.9749 309.1447 15.08827614 36632,6917.918000000002,95.438,541.375,538.191,0.0
52489.0,STARLINK-3923,PAYLOAD,2023-01-01 15:27:12,15.08818715,0.0002289,53.2123,240.2461,50.5666,309.5528,-2.3739e-05,-6.66e-06,0.0,0 STARLINK-3923,1 52489U 22049AQ  23001.64389758 -.00000666  00000-0 -23739-4 0  9999,2 52489  53.2123 240.2461 0002289  50.5666 309.5528 15.08818715 36830,6917.945,95.439,541.394,538.227,0.0
